GLOBALSTAR M045         
1 25676U 99019A   25217.57161758 -.00000107  00000+0 -11992-3 0  9995
2 25676  51.9959 164.5127 0000594 353.5149 177.9405 12.27064342199452
GLOBALSTAR M019         
1 25677U 99019B   25217.60895610 -.00000131  00000+0 -42622-3 0  9992
2 25677  51.9889 298.2534 0001532  85.1625  62.3905 12.13875830191149
GLOBALSTAR M044         
1 25678U 99019C   25217.40116310 -.00000086  00000+0 -27175-4 0  9990
2 25678  51.9953 256.3484 0006245 137.4365 323.7946 11.90253950177183
GLOBALSTAR M042         
1 25679U 99019D   25217.56976167 -.00000035  00000+0  53808-3 0  9996
2 25679  52.0005 271.5492 0002894  47.7679 119.2113 12.22085038191297
GLOBALSTAR M025         
1 25770U 99031A   25217.54016722 -.00000054  00000+0  41144-3 0  9993
2 25770  51.9831  44.9409 0001154 211.8599 180.5167 11.22563332487258
GLOBALSTAR M049         
1 25771U 99031B   25217.60407428 -.00000037  00000+0  99260-3 0  9991
2 25771  51.9878  82.0414 0003528  82.5073 277.6124 11.12118064122924
GLOBALSTAR M047         
1 25772U 99031C   25217.60158255 -.00000059  00000+0  30008-3 0  9992
2 25772  51.9838  74.2949 0016703 350.4445   9.6041 11.31929276476701
GLOBALSTAR M052         
1 25773U 99031D   25217.46458405 -.00000079  00000+0 -42742-3 0  9998
2 25773  51.9834 190.3371 0002785 262.8441 247.0038 11.15060542484004
